AKEBONO (EXOS-D)        
1 19822U 89016A   16097.07673093  .00026228 -12922-6  57159-3 0  9997
2 19822  75.0400  65.1113 1997902 103.1663 279.8715 11.48840332858592
HST                     
1 20580U 90037B   16097.56322917  .00001031  00000-0  53588-4 0  9990
2 20580  28.4708  11.6776 0002903 155.8627 212.5904 15.08282572224283
POLAR                   
1 23802U 96013A   16095.73682891  .00000057  00000-0  00000+0 0  9990
2 23802  78.3454 281.4019 7485292 341.6169   1.7424  1.29842229 96473
SWAS                    
1 25560U 98071A   16097.55256994  .00000451  00000-0  51930-4 0  9993
2 25560  69.8980 278.3845 0006166 142.9729 217.1854 14.92999372940365
ORSTED                  
1 25635U 99008B   16097.51448810  .00000094  00000-0  30185-4 0  9995
2 25635  96.4469  99.1270 0138592 199.3934 160.1961 14.47870834903041
CXO                     
1 25867U 99040B   16099.04012645  .00000301  00000-0  00000+0 0  9990
2 25867  76.0846 299.5421 7145476 262.7536   0.0937  0.37808892 14401
XMM-NEWTON              
1 25989U 99066A   16096.82879990  .00000253  00000-0  00000+0 0  9996
2 25989  67.3740  26.7754 8189781  94.7720   0.0835  0.50170463 18690
TERRA                   
1 25994U 99068A   16097.80999551 -.00000018  00000-0  60984-5 0  9992
2 25994  98.2144 173.0964 0001244  72.1907 287.9393 14.57110683867127
CLUSTER II-FM6 (SALSA)  
1 26410U 00041A   16099.12543649  .00000562  00000-0  00000+0 0  9999
2 26410 131.5048 328.5481 5158214 141.6360   0.5367  0.44211204 15572
CLUSTER II-FM7 (SAMBA)  
1 26411U 00041B   16099.22179548  .00000456  00000-0  00000+0 0  9996
2 26411 130.5486 330.2635 5670109 148.2194   0.7303  0.44195697 15657
CLUSTER II-FM5 (RUMBA)  
1 26463U 00045A   16099.06739964  .00000537  00000-0  00000+0 0  9993
2 26463 134.0204 327.9833 5361665 145.8145   0.5362  0.44189672 16152
CLUSTER II-FM8 (TANGO)  
1 26464U 00045B   16099.12589682  .00000562  00000-0  00000+0 0  9999
2 26464 131.5046 328.5474 5158245 141.6352   0.6097  0.44210844 51497
ODIN                    
1 26702U 01007A   16097.14895833  .00000791  00000-0  57818-4 0  9999
2 26702  97.6296 112.6769 0013119 101.2992 258.9710 15.06422653825831
TIMED                   
1 26998U 01055B   16097.14451171  .00000288  00000-0  35681-4 0  9997
2 26998  74.0699 104.6488 0002647 259.6031 100.4851 14.87679771776485
RHESSI                  
1 27370U 02004A   16097.68920973  .00004600  00000-0  18185-3 0  9998
2 27370  38.0360 184.1015 0010691 112.0996 248.0908 15.25601630779515
INTEGRAL                
1 27540U 02048A   16098.78292208  .00000873  00000-0  00000+0 0  9991
2 27540  51.9202 208.6218 8070207 259.1410   0.2739  0.37583722 12665
CORIOLIS                
1 27640U 03001A   16097.88336157  .00000018  00000-0  29767-4 0  9991
2 27640  98.7500 107.8963 0015127 118.7264 304.6685 14.18895532686074
SORCE                   
1 27651U 03004A   16097.46106981  .00000481  00000-0  65384-4 0  9999
2 27651  39.9951 234.8371 0022284  44.6719 315.5861 14.88293819715696
MOST                    
1 27843U 03031D   16097.55547719  .00000011  00000-0  25613-4 0  9990
2 27843  98.7164 105.8967 0009770 186.0345 174.0715 14.20519362661963
SCISAT 1                
1 27858U 03036A   16097.11493791  .00000200  00000-0  33335-4 0  9993
2 27858  73.9339 330.5401 0008019 181.7137 178.4011 14.77013423681243
SWIFT                   
1 28485U 04047A   16095.92565770  .00001861  00000-0  10238-3 0  9997
2 28485  20.5570 317.0426 0011702 105.0770 255.0959 15.03005007622165
FORMOSAT-3 FM6          
1 29047U 06011A   16097.23179727  .00000171  00000-0  83450-4 0  9994
2 29047  71.9817 358.6997 0051108 187.5147 172.5229 14.28493986522362
FORMOSAT-3 FM1          
1 29048U 06011B   16097.55305603  .00000115  00000-0  61857-4 0  9999
2 29048  71.9666 270.6644 0043587 141.4542 274.9273 14.28436297524907
FORMOSAT-3 FM5          
1 29049U 06011C   16097.53913243  .00000061  00000-0  40705-4 0  9992
2 29049  72.0194  73.6798 0035397 183.9682 176.1179 14.28456067520678
FORMOSAT-3 FM3          
1 29050U 06011D   16097.01608735  .00000352  00000-0  85314-4 0  9992
2 29050  72.0182  16.7457 0052009 231.9253 127.7202 14.58257906532737
FORMOSAT-3 FM4          
1 29051U 06011E   16097.00698026  .00000174  00000-0  83896-4 0  9999
2 29051  72.0074 339.6053 0066992  55.4940 305.2498 14.28473488523186
FORMOSAT-3 FM2          
1 29052U 06011F   16097.87858697  .00000095  00000-0  53732-4 0  9995
2 29052  72.0354  47.4983 0039480 146.0505 214.3171 14.28572074521626
CLOUDSAT                
1 29107U 06016A   16097.00761500  .00000173  00000-0  48338-4 0  9995
2 29107  98.2106  41.3413 0000994  54.0676 306.0615 14.57122401528602
CALIPSO                 
1 29108U 06016B   16097.14382615  .00000288  00000-0  73835-4 0  9994
2 29108  98.2055  41.0349 0001399  79.9050 280.2306 14.57128598528718
HINODE (SOLAR-B)        
1 29479U 06041A   16097.11722843  .00000210  00000-0  48431-4 0  9990
2 29479  98.1580  99.0563 0017905 148.7839 211.4431 14.64668721509418
SJ-6C                   
1 29505U 06046A   16097.80274447  .00000050  00000-0  10020-4 0  9998
2 29505  97.8053  95.9037 0004415  95.0017 265.1721 14.94120750514708
SJ-6D                   
1 29506U 06046B   16097.86580144  .00000266  00000-0  30970-4 0  9994
2 29506  97.8219  94.9927 0002893 139.0623 221.0828 14.93087586514448
AGILE                   
1 31135U 07013A   16096.12452677  .00004442  00000-0  11901-3 0  9999
2 31135   2.4678 275.4312 0013369  29.5425 330.5383 15.27768073496555
AIM                     
1 31304U 07015A   16097.49262963  .00002897  00000-0  17910-3 0  9995
2 31304  97.9592 251.2716 0005757 169.6879 190.4469 15.10696419488979
FGRST (GLAST)           
1 33053U 08029A   16097.20572266  .00000923  00000-0  37139-4 0  9997
2 33053  25.5823  96.7914 0012222 268.9959  90.9176 15.10532410431163
IBEX                    
1 33401U 08051A   16100.56261109 -.00002659  00000-0  00000+0 0  9995
2 33401  38.5379  28.4409 6360897 155.9160   3.4699  0.11747215  3160
WISE                    
1 36119U 09071A   16097.00979444  .00002446  00000-0  95492-4 0  9996
2 36119  97.4861 117.9998 0004405  72.0362 288.1356 15.26875237349515
SDO                     
1 36395U 10005A   16096.40653983 -.00000060  00000-0  00000+0 0  9998
2 36395  28.3364 148.3454 0001822 185.6935 264.3504  1.00275008 22688
CRYOSAT 2               
1 36508U 10013A   16097.83772711  .00000100  00000-0  23964-4 0  9995
2 36508  92.0230  96.8820 0009172  40.9886 319.2009 14.52173424317836
PICARD                  
1 36598U 10028A   16097.84044650  .00000096  00000-0  35878-4 0  9996
2 36598  98.3102 283.0973 0000241 195.4600 164.6592 14.50435082307500
SPEKTR-R                
1 37755U 11037A   16100.17782304 -.00001490  00000-0  00000+0 0  9993
2 37755  38.6798  43.7029 9297736 261.9201   0.0802  0.11433683  2022
GCOM-W1 (SHIZUKU)       
1 38337U 12025A   16097.50862663  .00000145  00000-0  42206-4 0  9991
2 38337  98.2017  38.0416 0001446  80.8497  50.8886 14.57100614206772
NUSTAR                  
1 38358U 12031A   16096.98994336  .00001539  00000-0  90362-4 0  9999
2 38358   6.0264 241.3516 0011373 120.9372 239.1875 14.87309304207236
RBSP A                  
1 38752U 12046A   16095.22050470 -.00000021  00000-0 -24439-5 0  9991
2 38752  10.1813  34.3822 6809531 101.1550 336.5385  2.68105479 35090
RBSP B                  
1 38753U 12046B   16097.15847308  .00000032  00000-0  60797-3 0  9995
2 38753  10.1721  39.7163 6824898  90.8247 341.3516  2.65111713 34977
NEOSSAT                 
1 39089U 13009D   16097.55860296  .00000034  00000-0  27649-4 0  9995
2 39089  98.5870 298.6615 0011652 146.7581 213.4338 14.34331290162803
BRITE-AUSTRIA           
1 39091U 13009F   16097.13063278  .00000078  00000-0  42900-4 0  9992
2 39091  98.5853 299.3113 0010900 157.9605 202.2051 14.34965101162817
UNIBRITE                
1 39092U 13009G   16097.50989685  .00000052  00000-0  33999-4 0  9993
2 39092  98.5855 299.4388 0009922 149.4924 210.6840 14.34837490162859
IRIS                    
1 39197U 13033A   16097.10839643  .00000332  00000-0  52724-4 0  9998
2 39197  97.9146 279.7814 0028766 146.8687 213.4333 14.78170266149537
HISAKI (SPRINT-A)       
1 39253U 13049A   16097.18219712  .00000104  00000-0  56687-4 0  9994
2 39253  29.7196  64.8390 0137213  78.6389 282.9564 13.55153318126927
CASSIOPE                
1 39265U 13055A   16097.16296698  .00006011  00000-0  17860-3 0  9992
2 39265  80.9683 105.8495 0707231  74.0989 293.6918 14.18424431129440
DANDE                   
1 39267U 13055C   16097.51793142  .00004700  00000-0  14115-3 0  9992
2 39267  81.0093 110.9579 0728550  82.6192 285.7111 14.13626041129259
STSAT-3                 
1 39422U 13066G   16097.77006700  .00000740  00000-0  83868-4 0  9994
2 39422  97.7073 166.7665 0021685 237.2736 122.6387 14.89153945128979
BRITE-PL                
1 39431U 13066R   16097.78550447  .00000262  00000-0  65967-4 0  9996
2 39431  97.6802 109.2686 0203698  27.5186 333.6618 14.46693568125351
SWARM B                 
1 39451U 13067A   16097.89214302  .00000993  00000-0  43924-4 0  9998
2 39451  87.7572  18.3212 0001727  86.5263 273.6179 15.20477962131546
SWARM A                 
1 39452U 13067B   16097.18244591  .00002507  00000-0  60846-4 0  9999
2 39452  87.3492 329.5139 0002114  97.0646 263.0850 15.40485357132822
SWARM C                 
1 39453U 13067C   16096.98752447  .00002742  00000-0  66665-4 0  9997
2 39453  87.3496 330.9943 0002065  96.9418 263.2072 15.40484884132716
BRITE-TORONTO           
1 40020U 14033L   16097.71522785  .00000218  00000-0  46328-4 0  9995
2 40020  97.8981 340.4823 0086422 274.4380  84.6955 14.66232775 96122
OCO 2                   
1 40059U 14035A   16097.48118093  .00000133  00000-0  39545-4 0  9995
2 40059  98.2103  39.2519 0000906 100.8246 259.3054 14.57119968 93795
BRITE-PL 2              
1 40119U 14049B   16097.76789864  .00000358  00000-0  49619-4 0  9990
2 40119  97.9621 179.3098 0019023  74.2964 286.0347 14.83875808 88430
RESURS P2               
1 40360U 14087A   16097.89196356  .00001834  00000-0  62109-4 0  9991
2 40360  97.2803 192.9157 0007377 124.5154 341.2981 15.31833449 71584
MMS 1                   
1 40482U 15011A   16097.02788457 -.00000280  00000-0  00000+0 0  9990
2 40482  28.6677 347.7488 8155466  90.4702 308.6314  1.00490756  3914
MMS 2                   
1 40483U 15011B   16096.15002352 -.00000241  00000-0  00000+0 0  9994
2 40483  28.6686 347.8154 8161927  90.3353 351.0693  1.00493910  3913
MMS 3                   
1 40484U 15011C   16094.16033713 -.00000168  00000-0  00000+0 0  9997
2 40484  28.6639 348.0571 8157314  89.9415 351.3495  1.00490531  3892
MMS 4                   
1 40485U 15011D   16097.02788856 -.00000281  00000-0  00000-0 0  9998
2 40485  28.6870 347.7342 8157499  90.4632 308.6767  1.00490793  3914
ASTROSAT                
1 40930U 15052A   16097.23018687 -.00008753  00000-0 -13375-2 0  9993
2 40930   6.0005 108.5385 0010327 182.8629 177.1670 14.75814484 28283
DAMPE                   
1 41173U 15078A   16097.81336985  .00000313  00000-0  16081-4 0  9990
2 41173  97.2975 112.1101 0012226 253.2558 223.1427 15.23323224 17025
ASTRO-H (HITOMI)        
1 41337U 16012A   16097.52385996  .00000690  00000-0  50072-4 0  9991
2 41337  31.0074   5.2432 0012340  48.4270 311.7401 14.98004457  7383
